IRIDIUM 39              
1 25042U 97069D   25169.85501972  .00000438  00000+0  10949-3 0  9994
2 25042  86.3926 210.4165 0015811 305.9301  54.0436 14.49222004449204
IRIDIUM 38              
1 25043U 97069E   25169.90838245  .00000314  00000+0  97009-4 0  9993
2 25043  86.3964 232.4307 0004276  93.0752 267.0935 14.38119616446206
IRIDIUM 42              
1 25077U 97077A   25169.91669882  .00000289  00000+0  92086-4 0  9990
2 25077  86.3966 238.5989 0003049  97.8068 262.3475 14.36353864441448
IRIDIUM 44              
1 25078U 97077B   25169.65804634  .00000313  00000+0  92624-4 0  9994
2 25078  86.3972 220.6306 0003509  62.3117 297.8438 14.40243754443911
IRIDIUM 45              
1 25104U 97082A   25169.69940967  .00012926  00000+0  46260-3 0  9991
2 25104  86.3583  47.1605 0114965 327.2119  32.2025 15.22487760452277
IRIDIUM 24              
1 25105U 97082B   25169.69868789  .00000374  00000+0  10772-3 0  9996
2 25105  86.3902  79.6606 0013639  75.2267 285.0443 14.42100862443430
IRIDIUM 57              
1 25273U 98019B   25169.84446372  .00000308  00000+0  99366-4 0  9994
2 25273  86.3972 144.5677 0002384  87.7281 272.4189 14.35894666425028
